[{"OBJECT_NAME":"STARLINK-4341","OBJECT_ID":"2022-077K","EPOCH":"2026-03-09T11:57:41.825664","MEAN_MOTION":15.01261289,"ECCENTRICITY":0.00024141,"INCLINATION":97.6022,"RA_OF_ASC_NODE":250.0365,"ARG_OF_PERICENTER":35.8169,"MEAN_ANOMALY":324.3216,"EPHEMERIS_TYPE":0,"CLASSIFICATION_TYPE":"U","NORAD_CAT_ID":53052,"ELEMENT_SET_NO":999,"REV_AT_EPOCH":20088,"BSTAR":2.727652e-6,"MEAN_MOTION_DOT":-2.3e-7,"MEAN_MOTION_DDOT":0},{"OBJECT_NAME":"ATLAS 5 CENTAUR R\/B","OBJECT_ID":"2015-058Q","EPOCH":"2026-03-09T09:58:43.980384","MEAN_MOTION":15.0421101,"ECCENTRICITY":0.01083886,"INCLINATION":64.7668,"RA_OF_ASC_NODE":96.662,"ARG_OF_PERICENTER":94.2862,"MEAN_ANOMALY":267.0651,"EPHEMERIS_TYPE":0,"CLASSIFICATION_TYPE":"U","NORAD_CAT_ID":40978,"ELEMENT_SET_NO":999,"REV_AT_EPOCH":10021,"BSTAR":0.00034608892,"MEAN_MOTION_DOT":5.305e-5,"MEAN_MOTION_DDOT":0}]
